{
  "type": "FeatureCollection",
  "features": [
    {
      "type": "Feature",
      "properties": {
        "norad_id": 30874,
        "name": "FENGYUN 1C DEB",
        "group": "fengyun-1c-debris",
        "lat": -64.94324021248002,
        "lon": -172.77325186342583,
        "alt_km": 852.3868793097145,
        "timestamp": "2025-12-21T14:40:48.195822+00:00",
        "meta_object_name": "FENGYUN 1C DEB",
        "meta_object_id": "1999-025AXL",
        "meta_epoch": "2025-12-19T00:45:01.403136",
        "meta_mean_motion": 14.1966129,
        "meta_eccentricity": 0.00416905,
        "meta_inclination": 98.4901,
        "meta_ra_of_asc_node": 23.3849,
        "meta_arg_of_pericenter": 22.4565,
        "meta_mean_anomaly": 3.7904,
        "meta_ephemeris_type": 0,
        "meta_classification_type": "U",
        "meta_norad_cat_id": 30874,
        "meta_element_set_no": 999,
        "meta_rev_at_epoch": 97110,
        "meta_bstar": 0.00036442946,
        "meta_mean_motion_dot": 7.35e-06,
        "meta_mean_motion_ddot": 0,
        "tle_line1": "1 30874U 99025AXL 25353.03126624  .00000735  00000+0  36443-3 0  9996",
        "tle_line2": "2 30874  98.4901  23.3849 0041690  22.4565   3.7904 14.19661290971108"
      },
      "geometry": {
        "type": "Point",
        "coordinates": [
          -172.77325186342583,
          -64.94324021248002
        ]
      }
    },
    {
      "type": "Feature",
      "properties": {
        "norad_id": 30876,
        "name": "FENGYUN 1C DEB",
        "group": "fengyun-1c-debris",
        "lat": 17.560744106019836,
        "lon": -22.461193625696637,
        "alt_km": 924.5612543228508,
        "timestamp": "2025-12-21T14:40:48.195832+00:00",
        "meta_object_name": "FENGYUN 1C DEB",
        "meta_object_id": "1999-025AXN",
        "meta_epoch": "2025-12-20T21:44:13.464096",
        "meta_mean_motion": 13.9917889,
        "meta_eccentricity": 0.0066291,
        "meta_inclination": 98.8119,
        "meta_ra_of_asc_node": 339.6735,
        "meta_arg_of_pericenter": 254.6644,
        "meta_mean_anomaly": 168.6163,
        "meta_ephemeris_type": 0,
        "meta_classification_type": "U",
        "meta_norad_cat_id": 30876,
        "meta_element_set_no": 999,
        "meta_rev_at_epoch": 95824,
        "meta_bstar": 0.00045819,
        "meta_mean_motion_dot": 6.34e-06,
        "meta_mean_motion_ddot": 0,
        "tle_line1": "1 30876U 99025AXN 25354.90571139  .00000634  00000+0  45819-3 0  9995",
        "tle_line2": "2 30876  98.8119 339.6735 0066291 254.6644 168.6163 13.99178890958247"
      },
      "geometry": {
        "type": "Point",
        "coordinates": [
          -22.461193625696637,
          17.560744106019836
        ]
      }
    },
    {
      "type": "Feature",
      "properties": {
        "norad_id": 30878,
        "name": "FENGYUN 1C DEB",
        "group": "fengyun-1c-debris",
        "lat": 0.5710849744144086,
        "lon": 176.92981140629598,
        "alt_km": 855.3386344784622,
        "timestamp": "2025-12-21T14:40:48.195842+00:00",
        "meta_object_name": "FENGYUN 1C DEB",
        "meta_object_id": "1999-025AXQ",
        "meta_epoch": "2025-12-20T19:42:36.070848",
        "meta_mean_motion": 14.11901976,
        "meta_eccentricity": 0.00398876,
        "meta_inclination": 98.7204,
        "meta_ra_of_asc_node": 356.0737,
        "meta_arg_of_pericenter": 271.0719,
        "meta_mean_anomaly": 213.36,
        "meta_ephemeris_type": 0,
        "meta_classification_type": "U",
        "meta_norad_cat_id": 30878,
        "meta_element_set_no": 999,
        "meta_rev_at_epoch": 96481,
        "meta_bstar": 0.0004377556,
        "meta_mean_motion_dot": 7.63e-06,
        "meta_mean_motion_ddot": 0,
        "tle_line1": "1 30878U 99025AXQ 25354.82125082  .00000763  00000+0  43776-3 0  9993",
        "tle_line2": "2 30878  98.7204 356.0737 0039887 271.0719 213.3600 14.11901976964813"
      },
      "geometry": {
        "type": "Point",
        "coordinates": [
          176.92981140629598,
          0.5710849744144086
        ]
      }
    },
    {
      "type": "Feature",
      "properties": {
        "norad_id": 30879,
        "name": "FENGYUN 1C DEB",
        "group": "fengyun-1c-debris",
        "lat": 41.50580072630407,
        "lon": 41.90890691416074,
        "alt_km": 722.6182623877121,
        "timestamp": "2025-12-21T14:40:48.195852+00:00",
        "meta_object_name": "FENGYUN 1C DEB",
        "meta_object_id": "1999-025AXR",
        "meta_epoch": "2025-12-20T08:35:06.273600",
        "meta_mean_motion": 14.67723071,
        "meta_eccentricity": 0.02009354,
        "meta_inclination": 99.3514,
        "meta_ra_of_asc_node": 212.0927,
        "meta_arg_of_pericenter": 256.6982,
        "meta_mean_anomaly": 101.1742,
        "meta_ephemeris_type": 0,
        "meta_classification_type": "U",
        "meta_norad_cat_id": 30879,
        "meta_element_set_no": 999,
        "meta_rev_at_epoch": 62051,
        "meta_bstar": 0.0025723024,
        "meta_mean_motion_dot": 0.0001987,
        "meta_mean_motion_ddot": 0,
        "tle_line1": "1 30879U 99025AXR 25354.35771150  .00019870  00000+0  25723-2 0  9995",
        "tle_line2": "2 30879  99.3514 212.0927 0200935 256.6982 101.1742 14.67723071620518"
      },
      "geometry": {
        "type": "Point",
        "coordinates": [
          41.90890691416074,
          41.50580072630407
        ]
      }
    },
    {
      "type": "Feature",
      "properties": {
        "norad_id": 30880,
        "name": "FENGYUN 1C DEB",
        "group": "fengyun-1c-debris",
        "lat": 49.190820546137765,
        "lon": 57.15164766790768,
        "alt_km": 788.6153675848936,
        "timestamp": "2025-12-21T14:40:48.195862+00:00",
        "meta_object_name": "FENGYUN 1C DEB",
        "meta_object_id": "1999-025AXS",
        "meta_epoch": "2025-12-21T04:20:25.919520",
        "meta_mean_motion": 14.25645152,
        "meta_eccentricity": 0.00217337,
        "meta_inclination": 98.7943,
        "meta_ra_of_asc_node": 67.0478,
        "meta_arg_of_pericenter": 83.6269,
        "meta_mean_anomaly": 276.7384,
        "meta_ephemeris_type": 0,
        "meta_classification_type": "U",
        "meta_norad_cat_id": 30880,
        "meta_element_set_no": 999,
        "meta_rev_at_epoch": 96834,
        "meta_bstar": 0.00089342568,
        "meta_mean_motion_dot": 2.078e-05,
        "meta_mean_motion_ddot": 0,
        "tle_line1": "1 30880U 99025AXS 25355.18085555  .00002078  00000+0  89343-3 0  9997",
        "tle_line2": "2 30880  98.7943  67.0478 0021733  83.6269 276.7384 14.25645152968345"
      },
      "geometry": {
        "type": "Point",
        "coordinates": [
          57.15164766790768,
          49.190820546137765
        ]
      }
    },
    {
      "type": "Feature",
      "properties": {
        "norad_id": 30882,
        "name": "FENGYUN 1C DEB",
        "group": "fengyun-1c-debris",
        "lat": 51.386497255421084,
        "lon": 40.878368437520535,
        "alt_km": 521.022631742906,
        "timestamp": "2025-12-21T14:40:48.195874+00:00",
        "meta_object_name": "FENGYUN 1C DEB",
        "meta_object_id": "1999-025AXU",
        "meta_epoch": "2025-12-17T10:18:53.495712",
        "meta_mean_motion": 14.86795704,
        "meta_eccentricity": 0.01527867,
        "meta_inclination": 97.9428,
        "meta_ra_of_asc_node": 46.764,
        "meta_arg_of_pericenter": 25.5168,
        "meta_mean_anomaly": 335.3489,
        "meta_ephemeris_type": 0,
        "meta_classification_type": "U",
        "meta_norad_cat_id": 30882,
        "meta_element_set_no": 999,
        "meta_rev_at_epoch": 99724,
        "meta_bstar": 0.00070873756,
        "meta_mean_motion_dot": 7.762e-05,
        "meta_mean_motion_ddot": 0,
        "tle_line1": "1 30882U 99025AXU 25351.42978583  .00007762  00000+0  70874-3 0  9998",
        "tle_line2": "2 30882  97.9428  46.7640 0152786  25.5168 335.3489 14.86795704997242"
      },
      "geometry": {
        "type": "Point",
        "coordinates": [
          40.878368437520535,
          51.386497255421084
        ]
      }
    },
    {
      "type": "Feature",
      "properties": {
        "norad_id": 30883,
        "name": "FENGYUN 1C DEB",
        "group": "fengyun-1c-debris",
        "lat": -70.52232186169651,
        "lon": 56.70884069921704,
        "alt_km": 863.4717162559218,
        "timestamp": "2025-12-21T14:40:48.195885+00:00",
        "meta_object_name": "FENGYUN 1C DEB",
        "meta_object_id": "1999-025AXV",
        "meta_epoch": "2025-12-20T21:11:40.883712",
        "meta_mean_motion": 14.14555368,
        "meta_eccentricity": 0.0112282,
        "meta_inclination": 98.3608,
        "meta_ra_of_asc_node": 31.4565,
        "meta_arg_of_pericenter": 190.377,
        "meta_mean_anomaly": 348.042,
        "meta_ephemeris_type": 0,
        "meta_classification_type": "U",
        "meta_norad_cat_id": 30883,
        "meta_element_set_no": 999,
        "meta_rev_at_epoch": 97032,
        "meta_bstar": 0.00014564,
        "meta_mean_motion_dot": 2.57e-06,
        "meta_mean_motion_ddot": 0,
        "tle_line1": "1 30883U 99025AXV 25354.88311208  .00000257  00000+0  14564-3 0  9993",
        "tle_line2": "2 30883  98.3608  31.4565 0112282 190.3770 348.0420 14.14555368970329"
      },
      "geometry": {
        "type": "Point",
        "coordinates": [
          56.70884069921704,
          -70.52232186169651
        ]
      }
    }
  ]
}